{"_default": { "543": {"norad_id": "57187", "name": "OBJECT X", "tle1": "1 57187U 23091X   26163.79873764  .00009662  00000-0  37179-3 0  9995", "tle2": "2 57187  97.5097 227.5912 0010924 107.5280 252.7153 15.26542243163643", "object_type": "PAYLOAD", "criticality_score": 7.0, "last_updated": "2026-06-13T11:16:06.819600+00:00", "maneuver_count": 0, "owner": "CIS"}, "544": {"norad_id": "57189", "name": "OBJECT Z", "tle1": "1 57189U 23091Z   26163.84786405  .00017390  00000-0  49908-3 0  9998", "tle2": "2 57189  97.5101 233.2457 0008515  90.5208 269.7011 15.35892638164023", "object_type": "PAYLOAD", "criticality_score": 7.0, "last_updated": "2026-06-13T11:16:06.819600+00:00", "maneuver_count": 0, "owner": "CIS"}, "545": {"norad_id": "57217", "name": "OBJECT AV", "tle1": "1 57217U 23091AV  26163.84790963  .00012886  00000-0  44832-3 0  9990", "tle2": "2 57217  97.5074 228.2835 0012379 111.4546 248.8015 15.29766027163711", "object_type": "PAYLOAD", "criticality_score": 7.0, "last_updated": "2026-06-13T11:16:06.819600+00:00", "maneuver_count": 0, "owner": "CIS"}, "554": {"norad_id": "57203", "name": "OBJECT AP", "tle1": "1 57203U 23091AP  26163.81526302  .00013715  00000-0  44633-3 0  9997", "tle2": "2 57203  97.5096 230.9756 0009441  96.7900 263.4416 15.31947365163871", "object_type": "PAYLOAD", "criticality_score": 7.0, "last_updated": "2026-06-13T11:16:06.819600+00:00", "maneuver_count": 0, "owner": "CIS"}, "558": {"norad_id": "57197", "name": "A-SEANSAT-PG1", "tle1": "1 57197U 23091AH  26163.84423792  .00018769  00000-0  52272-3 0  9993", "tle2": "2 57197  97.5090 233.3330 0008471  97.9474 262.2732 15.36815167164040", "object_type": "PAYLOAD", "criticality_score": 7.0, "last_updated": "2026-06-13T11:16:06.819600+00:00", "maneuver_count": 0, "owner": "MALA"}, "576": {"norad_id": "57195", "name": "OBJECT AF", "tle1": "1 57195U 23091AF  26163.81826002  .00005648  00000-0  26263-3 0  9992", "tle2": "2 57195  97.5097 223.4121 0011796 122.4141 237.8237 15.20307613163369", "object_type": "PAYLOAD", "criticality_score": 7.0, "last_updated": "2026-06-13T11:16:06.819600+00:00", "maneuver_count": 0, "owner": "CIS"}, "578": {"norad_id": "57196", "name": "OBJECT AG", "tle1": "1 57196U 23091AG  26163.85290419  .00014359  00000-0  46944-3 0  9991", "tle2": "2 57196  97.5098 230.8233 0009495 100.6645 259.5665 15.31786163163861", "object_type": "PAYLOAD", "criticality_score": 7.0, "last_updated": "2026-06-13T11:16:06.819600+00:00", "maneuver_count": 0, "owner": "CIS"}, "579": {"norad_id": "57188", "name": "OBJECT Y", "tle1": "1 57188U 23091Y   26163.85012472  .00010089  00000-0  38690-3 0  9998", "tle2": "2 57188  97.5075 227.4057 0010386 107.0411 253.1966 15.26647901163657", "object_type": "PAYLOAD", "criticality_score": 7.0, "last_updated": "2026-06-13T11:16:06.819600+00:00", "maneuver_count": 0, "owner": "CIS"}, "582": {"norad_id": "57204", "name": "OBJECT AQ", "tle1": "1 57204U 23091AQ  26163.84307604  .00019676  00000-0  52309-3 0  9994", "tle2": "2 57204  97.5103 234.4792 0007581  88.3970 271.8143 15.38256492164105", "object_type": "PAYLOAD", "criticality_score": 7.0, "last_updated": "2026-06-13T11:16:06.819600+00:00", "maneuver_count": 0, "owner": "CIS"}, "583": {"norad_id": "57208", "name": "OBJECT AU", "tle1": "1 57208U 23091AU  26163.85768779  .00020430  00000-0  53561-3 0  9994", "tle2": "2 57208  97.5100 234.7381 0007498  88.1270 272.0834 15.38679478164126", "object_type": "PAYLOAD", "criticality_score": 7.0, "last_updated": "2026-06-13T11:16:06.819600+00:00", "maneuver_count": 0, "owner": "CIS"}, "584": {"norad_id": "57199", "name": "OBJECT AK", "tle1": "1 57199U 23091AK  26163.82661637  .00021024  00000-0  55512-3 0  9993", "tle2": "2 57199  97.5091 234.2646 0007753  93.3142 266.8990 15.38450789164095", "object_type": "PAYLOAD", "criticality_score": 7.0, "last_updated": "2026-06-13T11:16:06.819600+00:00", "maneuver_count": 0, "owner": "CIS"}, "585": {"norad_id": "57201", "name": "OBJECT AM", "tle1": "1 57201U 23091AM  26163.85163360  .00019590  00000-0  52564-3 0  9999", "tle2": "2 57201  97.5088 234.0237 0008016  93.3336 266.8826 15.37967456164087", "object_type": "PAYLOAD", "criticality_score": 7.0, "last_updated": "2026-06-13T11:16:06.819600+00:00", "maneuver_count": 0, "owner": "CIS"}, "586": {"norad_id": "57194", "name": "OBJECT AE", "tle1": "1 57194U 23091AE  26163.85398309  .00010743  00000-0  42529-3 0  9994", "tle2": "2 57194  97.5075 226.6812 0012913 120.8565 239.3945 15.25543973163617", "object_type": "PAYLOAD", "criticality_score": 7.0, "last_updated": "2026-06-13T11:16:06.819600+00:00", "maneuver_count": 0, "owner": "CIS"}, "587": {"norad_id": "57193", "name": "OBJECT AD", "tle1": "1 57193U 23091AD  26163.84188953  .00015378  00000-0  49847-3 0  9993", "tle2": "2 57193  97.5066 229.2710 0011848 113.1656 247.0835 15.32021818163783", "object_type": "PAYLOAD", "criticality_score": 7.0, "last_updated": "2026-06-13T11:16:06.819600+00:00", "maneuver_count": 0, "owner": "CIS"}, "588": {"norad_id": "57192", "name": "OBJECT AC", "tle1": "1 57192U 23091AC  26163.85171808  .00010784  00000-0  42292-3 0  9997", "tle2": "2 57192  97.5077 226.8518 0013077 119.8541 240.3998 15.25854284163627", "object_type": "PAYLOAD", "criticality_score": 7.0, "last_updated": "2026-06-13T11:16:06.819600+00:00", "maneuver_count": 0, "owner": "CIS"}, "634": {"norad_id": "57492", "name": "METEOR 2-1 DEB", "tle1": "1 57492U 75064F   26159.82607220  .00004941  00000-0  19310-2 0  9993", "tle2": "2 57492  81.2796   7.6224 0011204  86.9874 273.2590 14.29430842401799", "object_type": "DEBRIS", "criticality_score": 1.0, "last_updated": "2026-06-13T11:16:06.819600+00:00", "maneuver_count": 0, "owner": "CIS"}, "646": {"norad_id": "57490", "name": "FENGYUN 3F", "tle1": "1 57490U 23111A   26163.81676545  .00000038  00000-0  38412-4 0  9996", "tle2": "2 57490  98.6836 233.9067 0001597  96.2218 263.9140 14.19938387148244", "object_type": "PAYLOAD", "criticality_score": 7.0, "last_updated": "2026-06-13T11:16:06.819600+00:00", "maneuver_count": 0, "owner": "PRC"}, "647": {"norad_id": "57213", "name": "H2SAT", "tle1": "1 57213U 23093A   26162.62334442  .00000019  00000-0  00000-0 0  9990", "tle2": "2 57213   0.0589 109.4090 0000654  54.0522 321.6084  1.00270179 10864", "object_type": "PAYLOAD", "criticality_score": 7.0, "last_updated": "2026-06-13T11:16:06.819600+00:00", "maneuver_count": 0, "owner": "GER"}, "649": {"norad_id": "57422", "name": "QIANKUN-1", "tle1": "1 57422U 23103B   26161.63652352  .00015936  17687-5  19495-4 0  9997", "tle2": "2 57422  96.1537 206.9401 0027936 148.1317 212.1666 16.07641077166249", "object_type": "PAYLOAD", "criticality_score": 7.0, "last_updated": "2026-06-13T11:16:06.819600+00:00", "maneuver_count": 0, "owner": "PRC"}, "654": {"norad_id": "57519", "name": "HJ-2F", "tle1": "1 57519U 23116A   26163.84838932  .00007920  00000-0  34668-3 0  9991", "tle2": "2 57519  97.3838 169.1424 0010204  64.8756 295.3538 15.22260792158091", "object_type": "PAYLOAD", "criticality_score": 7.0, "last_updated": "2026-06-13T11:16:06.819600+00:00", "maneuver_count": 0, "owner": "PRC"}, "656": {"norad_id": "57800", "name": "XRISM", "tle1": "1 57800U 23137A   26163.83494228  .00004932  00000-0  27122-3 0  9999", "tle2": "2 57800  31.0030  27.7923 0007977 280.2872  79.6867 15.12429840152207", "object_type": "PAYLOAD", "criticality_score": 7.0, "last_updated": "2026-06-13T11:16:06.819600+00:00", "maneuver_count": 0, "owner": "JPN"}, "781": {"norad_id": "59051", "name": "METEOR M2-4", "tle1": "1 59051U 24039A   26163.89256810 -.00000006  00000-0  16973-4 0  9992", "tle2": "2 59051  98.7015 123.2446 0007054 173.0118 187.1160 14.22429124118657", "object_type": "PAYLOAD", "criticality_score": 7.0, "last_updated": "2026-06-13T11:16:06.819600+00:00", "maneuver_count": 0, "owner": "CIS"}, "875": {"norad_id": "60237", "name": "OBJECT C", "tle1": "1 60237U 24128C   26163.77333337  .00003691  00000-0  25772-3 0  9994", "tle2": "2 60237  61.9896 231.7519 0041192 133.7037 226.7481 15.06613019105602", "object_type": "PAYLOAD", "criticality_score": 7.0, "last_updated": "2026-06-13T11:16:06.819600+00:00", "maneuver_count": 0, "owner": "SVK"}, "910": {"norad_id": "60471", "name": "LEMUR 2 TOMATOKECHUP", "tle1": "1 60471U 24149D   26163.74249759  .00011528  00000-0  33169-3 0  9995", "tle2": "2 60471  97.3803 245.7778 0001008 185.5972 174.5261 15.35940328101486", "object_type": "PAYLOAD", "criticality_score": 7.0, "last_updated": "2026-06-13T11:16:06.819600+00:00", "maneuver_count": 0, "owner": "US"}, "911": {"norad_id": "60469", "name": "WARATAH SEED-1", "tle1": "1 60469U 24149B   26163.74598550  .00014253  00000-0  41074-3 0  9990", "tle2": "2 60469  97.3696 244.3164 0001122 191.0755 169.0464 15.35839169101434", "object_type": "PAYLOAD", "criticality_score": 7.0, "last_updated": "2026-06-13T11:16:06.819600+00:00", "maneuver_count": 0, "owner": "AUS"}, "921": {"norad_id": "60472", "name": "CONNECTA IOT-1", "tle1": "1 60472U 24149E   26163.76100179  .00004794  00000-0  20378-3 0  9995", "tle2": "2 60472  97.3762 240.1269 0000636 347.7027  12.4194 15.23509562101128", "object_type": "PAYLOAD", "criticality_score": 7.0, "last_updated": "2026-06-13T11:16:06.819600+00:00", "maneuver_count": 0, "owner": "TURK"}, "958": {"norad_id": "60468", "name": "OBJECT A", "tle1": "1 60468U 24149A   26163.77979502  .00009395  00000-0  29862-3 0  9994", "tle2": "2 60468  97.3738 243.7232 0002382 211.0657 149.0444 15.32838311101387", "object_type": "PAYLOAD", "criticality_score": 7.0, "last_updated": "2026-06-13T11:16:06.819600+00:00", "maneuver_count": 0, "owner": "TBD"}}}