OBJECT_NAME,OBJECT_ID,EPOCH,MEAN_MOTION,ECCENTRICITY,INCLINATION,RA_OF_ASC_NODE,ARG_OF_PERICENTER,MEAN_ANOMALY,EPHEMERIS_TYPE,CLASSIFICATION_TYPE,NORAD_CAT_ID,ELEMENT_SET_NO,REV_AT_EPOCH,BSTAR,MEAN_MOTION_DOT,MEAN_MOTION_DDOT
SVYATOBOR 1 (RS60S),2023-091X,2026-06-12T19:10:10.932096,15.26542243,.0010924,97.5097,227.5912,107.5280,252.7153,0,U,57187,999,16364,.37179E-3,.9662E-4,0
HORS 1,2023-091Y,2026-06-12T20:24:10.775808,15.26647901,.0010386,97.5075,227.4057,107.0411,253.1966,0,U,57188,999,16365,.3869E-3,.10089E-3,0
VIZARD-METEO (RS38S),2023-091Z,2026-06-12T20:20:55.453920,15.35892638,.0008515,97.5101,233.2457,90.5208,269.7011,0,U,57189,999,16402,.49908E-3,.1739E-3,0
SITRO-AIS 6 (CHIRKIN),2023-091AC,2026-06-12T20:26:28.442112,15.25854284,.0013077,97.5077,226.8518,119.8541,240.3998,0,U,57192,999,16362,.42292E-3,.10784E-3,0
SITRO-AIS 8 (ANOKHIN),2023-091AD,2026-06-12T20:12:19.255392,15.32021818,.0011848,97.5066,229.2710,113.1656,247.0835,0,U,57193,999,16378,.49847E-3,.15378E-3,0
SITRO-AIS 7 (FARTUSHNIY),2023-091AE,2026-06-12T20:29:44.138976,15.25543973,.0012913,97.5075,226.6812,120.8565,239.3945,0,U,57194,999,16361,.42529E-3,.10743E-3,0
AVION KALUGA 650,2023-091AF,2026-06-12T19:38:17.665728,15.20307613,.0011796,97.5097,223.4121,122.4141,237.8237,0,U,57195,999,16336,.26263E-3,.5648E-4,0
HORS 2,2023-091AG,2026-06-12T20:28:10.922016,15.31786163,.0009495,97.5098,230.8233,100.6645,259.5665,0,U,57196,999,16386,.46944E-3,.14359E-3,0
A-SEANSAT-PG1,2023-091AH,2026-06-12T20:15:42.156288,15.36815167,.0008471,97.5090,233.3330,97.9474,262.2732,0,U,57197,999,16404,.52272E-3,.18769E-3,0
SITRO-AIS 10 (BURDAEV),2023-091AK,2026-06-12T19:50:19.654368,15.38450789,.0007753,97.5091,234.2646,93.3142,266.8990,0,U,57199,999,16409,.55512E-3,.21024E-3,0
SITRO-AIS 9 (SHCHUKIN),2023-091AM,2026-06-12T20:26:21.143040,15.37967456,.0008016,97.5088,234.0237,93.3336,266.8826,0,U,57201,999,16408,.52564E-3,.1959E-3,0
UTMN 2 (RS27S),2023-091AP,2026-06-12T19:33:58.724928,15.31947365,.0009441,97.5096,230.9756,96.7900,263.4416,0,U,57203,999,16387,.44633E-3,.13715E-3,0
SITRO-AIS 12 (SMIRENNIY),2023-091AQ,2026-06-12T20:14:01.769856,15.38256492,.0007581,97.5103,234.4792,88.3970,271.8143,0,U,57204,999,16410,.52309E-3,.19676E-3,0
SITRO-AIS 11 (SHEFFER),2023-091AU,2026-06-12T20:35:04.225056,15.38679478,.0007498,97.5100,234.7381,88.1270,272.0834,0,U,57208,999,16412,.53561E-3,.2043E-3,0
H2SAT (HEINRICH HERTZ),2023-093A,2026-06-11T14:57:36.957888,1.00270179,.00006542,0.0589,109.4090,54.0522,321.6084,0,U,57213,999,1086,0,.19E-6,0
KUZGTU 1 (RS47S),2023-091AV,2026-06-12T20:20:59.392032,15.29766027,.0012379,97.5074,228.2835,111.4546,248.8015,0,U,57217,999,16371,.44832E-3,.12886E-3,0
QIANKUN-1,2023-103B,2026-06-10T15:16:35.632128,16.07641077,.00279364,96.1537,206.9401,148.1317,212.1666,0,U,57422,999,16624,.19494773E-4,.15936E-3,.1768719E-5
FENGYUN 3F,2023-111A,2026-06-12T19:36:08.534880,14.19938387,.0001597,98.6836,233.9067,96.2218,263.9140,0,U,57490,999,14824,.38412E-4,.38E-6,0
METEOR 2-1 DEB,1975-064F,2026-06-08T19:49:32.638080,14.29430842,.00112045,81.2796,7.6224,86.9874,273.2590,0,U,57492,999,40179,.1931023E-2,.4941E-4,0
HJ-2F,2023-116A,2026-06-12T20:21:40.837248,15.22260792,.0010204,97.3838,169.1424,64.8756,295.3538,0,U,57519,999,15809,.34668E-3,.792E-4,0
XRISM,2023-137A,2026-06-12T20:02:19.012992,15.12429840,.0007977,31.0030,27.7923,280.2872,79.6867,0,U,57800,999,15220,.27122E-3,.4932E-4,0
METEOR-M2 4,2024-039A,2026-06-12T21:25:17.883840,14.22429124,.0007054,98.7015,123.2446,173.0118,187.1160,0,U,59051,999,11865,.16973E-4,-.6E-7,0
GRBBETA,2024-128C,2026-06-12T18:33:36.003168,15.06613019,.0041192,61.9896,231.7519,133.7037,226.7481,0,U,60237,999,10560,.25772E-3,.3691E-4,0
TRANSPORTER-11 OBJECT A,2024-149A,2026-06-12T18:42:54.289728,15.32838311,.0002382,97.3738,243.7232,211.0657,149.0444,0,U,60468,999,10138,.29862E-3,.9395E-4,0
WARATAH SEED-1,2024-149B,2026-06-12T17:54:13.147200,15.35839169,.0001122,97.3696,244.3164,191.0755,169.0464,0,U,60469,999,10143,.41074E-3,.14253E-3,0
LEMUR-2-TOMATOKECHUP,2024-149D,2026-06-12T17:49:11.791776,15.35940328,.0001008,97.3803,245.7778,185.5972,174.5261,0,U,60471,999,10148,.33169E-3,.11528E-3,0
CONNECTA IOT-1,2024-149E,2026-06-12T18:15:50.554656,15.23509562,.0000636,97.3762,240.1269,347.7027,12.4194,0,U,60472,999,10112,.20378E-3,.4794E-4,0
